{
  "type": "FeatureCollection",
  "features": [
    {
      "type": "Feature",
      "properties": {
        "norad_id": 30556,
        "name": "FENGYUN 1C DEB",
        "group": "fengyun-1c-debris",
        "lat": -29.75547015343162,
        "lon": 165.26231615179603,
        "alt_km": 845.0985321011667,
        "timestamp": "2025-12-23T11:34:48.440723+00:00",
        "meta_object_name": "FENGYUN 1C DEB",
        "meta_object_id": "1999-025AKW",
        "meta_epoch": "2025-12-22T22:43:27.357024",
        "meta_mean_motion": 14.01373193,
        "meta_eccentricity": 0.0068593,
        "meta_inclination": 98.7808,
        "meta_ra_of_asc_node": 349.8162,
        "meta_arg_of_pericenter": 208.7629,
        "meta_mean_anomaly": 180.3531,
        "meta_ephemeris_type": 0,
        "meta_classification_type": "U",
        "meta_norad_cat_id": 30556,
        "meta_element_set_no": 999,
        "meta_rev_at_epoch": 96400,
        "meta_bstar": 0.00016385,
        "meta_mean_motion_dot": 2.1e-06,
        "meta_mean_motion_ddot": 0,
        "tle_line1": "1 30556U 99025AKW 25356.94684441  .00000210  00000+0  16385-3 0  9993",
        "tle_line2": "2 30556  98.7808 349.8162 0068593 208.7629 180.3531 14.01373193964001"
      },
      "geometry": {
        "type": "Point",
        "coordinates": [
          165.26231615179603,
          -29.75547015343162
        ]
      }
    },
    {
      "type": "Feature",
      "properties": {
        "norad_id": 30557,
        "name": "FENGYUN 1C DEB",
        "group": "fengyun-1c-debris",
        "lat": -19.956994211267244,
        "lon": 65.83292317868977,
        "alt_km": 897.9727777626176,
        "timestamp": "2025-12-23T11:34:48.440732+00:00",
        "meta_object_name": "FENGYUN 1C DEB",
        "meta_object_id": "1999-025AKX",
        "meta_epoch": "2025-12-22T16:57:14.652576",
        "meta_mean_motion": 14.10841924,
        "meta_eccentricity": 0.00687056,
        "meta_inclination": 98.9195,
        "meta_ra_of_asc_node": 61.7935,
        "meta_arg_of_pericenter": 204.7549,
        "meta_mean_anomaly": 155.032,
        "meta_ephemeris_type": 0,
        "meta_classification_type": "U",
        "meta_norad_cat_id": 30557,
        "meta_element_set_no": 999,
        "meta_rev_at_epoch": 96441,
        "meta_bstar": 0.0012107904,
        "meta_mean_motion_dot": 2.174e-05,
        "meta_mean_motion_ddot": 0,
        "tle_line1": "1 30557U 99025AKX 25356.70641959  .00002174  00000+0  12108-2 0  9994",
        "tle_line2": "2 30557  98.9195  61.7935 0068705 204.7549 155.0320 14.10841924964415"
      },
      "geometry": {
        "type": "Point",
        "coordinates": [
          65.83292317868977,
          -19.956994211267244
        ]
      }
    },
    {
      "type": "Feature",
      "properties": {
        "norad_id": 30558,
        "name": "FENGYUN 1C DEB",
        "group": "fengyun-1c-debris",
        "lat": 56.98628729087954,
        "lon": -27.563192331986645,
        "alt_km": 1324.548174440757,
        "timestamp": "2025-12-23T11:34:48.440741+00:00",
        "meta_object_name": "FENGYUN 1C DEB",
        "meta_object_id": "1999-025AKY",
        "meta_epoch": "2025-12-18T02:35:59.256672",
        "meta_mean_motion": 13.28535877,
        "meta_eccentricity": 0.04271131,
        "meta_inclination": 99.4659,
        "meta_ra_of_asc_node": 132.6231,
        "meta_arg_of_pericenter": 260.3076,
        "meta_mean_anomaly": 94.9567,
        "meta_ephemeris_type": 0,
        "meta_classification_type": "U",
        "meta_norad_cat_id": 30558,
        "meta_element_set_no": 999,
        "meta_rev_at_epoch": 90829,
        "meta_bstar": 0.0032374201,
        "meta_mean_motion_dot": 2.396e-05,
        "meta_mean_motion_ddot": 0,
        "tle_line1": "1 30558U 99025AKY 25352.10832473  .00002396  00000+0  32374-2 0  9991",
        "tle_line2": "2 30558  99.4659 132.6231 0427113 260.3076  94.9567 13.28535877908292"
      },
      "geometry": {
        "type": "Point",
        "coordinates": [
          -27.563192331986645,
          56.98628729087954
        ]
      }
    },
    {
      "type": "Feature",
      "properties": {
        "norad_id": 30560,
        "name": "FENGYUN 1C DEB",
        "group": "fengyun-1c-debris",
        "lat": -27.466511201708595,
        "lon": -4.505393122751335,
        "alt_km": 914.0389110303249,
        "timestamp": "2025-12-23T11:34:48.440751+00:00",
        "meta_object_name": "FENGYUN 1C DEB",
        "meta_object_id": "1999-025ALA",
        "meta_epoch": "2025-12-21T12:50:25.509408",
        "meta_mean_motion": 14.17035472,
        "meta_eccentricity": 0.0115361,
        "meta_inclination": 98.664,
        "meta_ra_of_asc_node": 349.0509,
        "meta_arg_of_pericenter": 186.3727,
        "meta_mean_anomaly": 296.1019,
        "meta_ephemeris_type": 0,
        "meta_classification_type": "U",
        "meta_norad_cat_id": 30560,
        "meta_element_set_no": 999,
        "meta_rev_at_epoch": 97493,
        "meta_bstar": 0.00019546688,
        "meta_mean_motion_dot": 3.77e-06,
        "meta_mean_motion_ddot": 0,
        "tle_line1": "1 30560U 99025ALA 25355.53501747  .00000377  00000+0  19547-3 0  9996",
        "tle_line2": "2 30560  98.6640 349.0509 0115361 186.3727 296.1019 14.17035472974934"
      },
      "geometry": {
        "type": "Point",
        "coordinates": [
          -4.505393122751335,
          -27.466511201708595
        ]
      }
    },
    {
      "type": "Feature",
      "properties": {
        "norad_id": 30561,
        "name": "FENGYUN 1C DEB",
        "group": "fengyun-1c-debris",
        "lat": -29.429225367905868,
        "lon": 174.3444741554118,
        "alt_km": 886.3687508665644,
        "timestamp": "2025-12-23T11:34:48.440760+00:00",
        "meta_object_name": "FENGYUN 1C DEB",
        "meta_object_id": "1999-025ALB",
        "meta_epoch": "2025-12-22T16:11:43.560672",
        "meta_mean_motion": 14.11282806,
        "meta_eccentricity": 0.00607741,
        "meta_inclination": 98.7246,
        "meta_ra_of_asc_node": 358.5293,
        "meta_arg_of_pericenter": 86.1954,
        "meta_mean_anomaly": 341.6399,
        "meta_ephemeris_type": 0,
        "meta_classification_type": "U",
        "meta_norad_cat_id": 30561,
        "meta_element_set_no": 999,
        "meta_rev_at_epoch": 97118,
        "meta_bstar": 0.00030622538,
        "meta_mean_motion_dot": 5.21e-06,
        "meta_mean_motion_ddot": 0,
        "tle_line1": "1 30561U 99025ALB 25356.67480973  .00000521  00000+0  30623-3 0  9999",
        "tle_line2": "2 30561  98.7246 358.5293 0060774  86.1954 341.6399 14.11282806971189"
      },
      "geometry": {
        "type": "Point",
        "coordinates": [
          174.3444741554118,
          -29.429225367905868
        ]
      }
    },
    {
      "type": "Feature",
      "properties": {
        "norad_id": 30562,
        "name": "FENGYUN 1C DEB",
        "group": "fengyun-1c-debris",
        "lat": 7.392576403254743,
        "lon": -113.67383681300191,
        "alt_km": 796.25767874129,
        "timestamp": "2025-12-23T11:34:48.440770+00:00",
        "meta_object_name": "FENGYUN 1C DEB",
        "meta_object_id": "1999-025ALC",
        "meta_epoch": "2025-12-23T04:16:48.468864",
        "meta_mean_motion": 14.23122272,
        "meta_eccentricity": 0.0059866,
        "meta_inclination": 98.7627,
        "meta_ra_of_asc_node": 64.8768,
        "meta_arg_of_pericenter": 235.2348,
        "meta_mean_anomaly": 180.3343,
        "meta_ephemeris_type": 0,
        "meta_classification_type": "U",
        "meta_norad_cat_id": 30562,
        "meta_element_set_no": 999,
        "meta_rev_at_epoch": 97148,
        "meta_bstar": 0.0015876,
        "meta_mean_motion_dot": 3.607e-05,
        "meta_mean_motion_ddot": 0,
        "tle_line1": "1 30562U 99025ALC 25357.17833876  .00003607  00000+0  15876-2 0  9990",
        "tle_line2": "2 30562  98.7627  64.8768 0059866 235.2348 180.3343 14.23122272971484"
      },
      "geometry": {
        "type": "Point",
        "coordinates": [
          -113.67383681300191,
          7.392576403254743
        ]
      }
    },
    {
      "type": "Feature",
      "properties": {
        "norad_id": 30564,
        "name": "FENGYUN 1C DEB",
        "group": "fengyun-1c-debris",
        "lat": 20.15646549444501,
        "lon": -167.77851451631207,
        "alt_km": 822.4556236056751,
        "timestamp": "2025-12-23T11:34:48.440779+00:00",
        "meta_object_name": "FENGYUN 1C DEB",
        "meta_object_id": "1999-025ALE",
        "meta_epoch": "2025-12-22T07:35:15.357408",
        "meta_mean_motion": 14.05776023,
        "meta_eccentricity": 0.02029236,
        "meta_inclination": 98.7958,
        "meta_ra_of_asc_node": 7.8304,
        "meta_arg_of_pericenter": 92.0867,
        "meta_mean_anomaly": 285.8037,
        "meta_ephemeris_type": 0,
        "meta_classification_type": "U",
        "meta_norad_cat_id": 30564,
        "meta_element_set_no": 999,
        "meta_rev_at_epoch": 96430,
        "meta_bstar": 0.00066892765,
        "meta_mean_motion_dot": 1.274e-05,
        "meta_mean_motion_ddot": 0,
        "tle_line1": "1 30564U 99025ALE 25356.31614997  .00001274  00000+0  66893-3 0  9992",
        "tle_line2": "2 30564  98.7958   7.8304 0202923  92.0867 285.8037 14.05776023964308"
      },
      "geometry": {
        "type": "Point",
        "coordinates": [
          -167.77851451631207,
          20.15646549444501
        ]
      }
    }
  ]
}